[{"OBJECT_NAME":"STARLINK-30506","OBJECT_ID":"2023-158X","EPOCH":"2026-03-09T22:07:09.098112","MEAN_MOTION":15.27579932,"ECCENTRICITY":5.024e-5,"INCLINATION":42.9941,"RA_OF_ASC_NODE":25.8767,"ARG_OF_PERICENTER":174.9966,"MEAN_ANOMALY":185.0891,"EPHEMERIS_TYPE":0,"CLASSIFICATION_TYPE":"U","NORAD_CAT_ID":58072,"ELEMENT_SET_NO":999,"REV_AT_EPOCH":13360,"BSTAR":0.0005704728,"MEAN_MOTION_DOT":0.00015469,"MEAN_MOTION_DDOT":0},{"OBJECT_NAME":"LIME","OBJECT_ID":"2025-009AR","EPOCH":"2026-03-09T17:44:15.459648","MEAN_MOTION":15.28703313,"ECCENTRICITY":0.00016347,"INCLINATION":97.3985,"RA_OF_ASC_NODE":151.4831,"ARG_OF_PERICENTER":35.9029,"MEAN_ANOMALY":324.232,"EPHEMERIS_TYPE":0,"CLASSIFICATION_TYPE":"U","NORAD_CAT_ID":62648,"ELEMENT_SET_NO":999,"REV_AT_EPOCH":6376,"BSTAR":0.00047722827,"MEAN_MOTION_DOT":0.00013254,"MEAN_MOTION_DDOT":0}]
